API VERSION: 1.2
API SOURCE: NASA/JPL Horizons API



*******************************************************************************
Ephemeris / API_USER Wed Apr 15 10:21:17 2026 Pasadena, USA      / Horizons
*******************************************************************************
Target body name: Mars (499)                      {source: mar099}
Center body name: Sun (10)                        {source: DE441}
Center-site name: BODY CENTER
*******************************************************************************
Start time      : A.D. 2300-Jan-01 00:00:00.0000 TDB
Stop  time      : A.D. 2399-Dec-18 00:00:00.0000 TDB
Step-size       : 43200 minutes
*******************************************************************************
Center geodetic : 0.0, 0.0, 0.0                   {E-lon(deg),Lat(deg),Alt(km)}
Center cylindric: 0.0, 0.0, 0.0                   {E-lon(deg),Dxy(km),Dz(km)}
Center radii    : 695700.0, 695700.0, 695700.0 km {Equator_a, b, pole_c}
Output units    : AU-D
Calendar mode   : Mixed Julian/Gregorian
Output type     : GEOMETRIC cartesian states
Output format   : 3 (position, velocity, LT, range, range-rate)
Reference frame : Ecliptic of J2000.0
*******************************************************************************
            JDTDB,            Calendar Date (TDB),                      X,                      Y,                      Z,                     VX,                     VY,                     VZ,                     LT,                     RG,                     RR,
**************************************************************************************************************************************************************************************************************************************************************************
$$SOE
2596217.500000000, A.D. 2396-Feb-07 00:00:00.0000, -1.514932382412093E+00, -5.775683174464188E-01,  2.375765346962466E-02,  5.474113906185754E-03, -1.186097358729012E-02, -3.797667538842434E-04,  9.364838168028734E-03,  1.621471464657041E+00, -8.951204273278027E-04,
2596247.500000000, A.D. 2396-Mar-08 00:00:00.0000, -1.304551479353112E+00, -9.113369912867858E-01,  1.173482041336808E-02,  8.504539875838057E-03, -1.025604539564207E-02, -4.178182223835526E-04,  9.191111640339379E-03,  1.591391648834497E+00, -1.101425627038918E-03,
2596277.500000000, A.D. 2396-Apr-07 00:00:00.0000, -1.008507761029536E+00, -1.184926550923403E+00, -1.051496475933798E-03,  1.114897066901832E-02, -7.852271972274602E-03, -4.298802339656248E-04,  8.986713837361862E-03,  1.556001266318533E+00, -1.246146726610540E-03,
2596307.500000000, A.D. 2396-May-07 00:00:00.0000, -6.417956751509368E-01, -1.374949340626097E+00, -1.375281698217655E-02,  1.317424430810511E-02, -4.698770659075082E-03, -4.114594248668906E-04,  8.763911883436329E-03,  1.517424303846993E+00, -1.310736008160006E-03,
2596337.500000000, A.D. 2396-Jun-06 00:00:00.0000, -2.268251971069026E-01, -1.460612834777654E+00, -2.539952151886233E-02,  1.432246073319937E-02, -9.251191902251502E-04, -3.591691181435313E-04,  8.538170986238656E-03,  1.478338479122149E+00, -1.277333519247883E-03,
2596367.500000000, A.D. 2396-Jul-06 00:00:00.0000,  2.062642977995230E-01, -1.426641484080045E+00, -3.495480890735837E-02,  1.434419111797619E-02,  3.225487997527298E-03, -2.722133250492351E-04,  8.327714100791920E-03,  1.441898998997709E+00, -1.132815343931498E-03,
2596397.500000000, A.D. 2396-Aug-05 00:00:00.0000,  6.207300953346236E-01, -1.267020248574973E+00, -4.142036512400376E-02,  1.306153904469492E-02,  7.378619892218374E-03, -1.542669817953894E-04,  8.152204597119983E-03,  1.411510470453593E+00, -8.747938217128735E-04,
2596427.500000000, A.D. 2396-Sep-04 00:00:00.0000,  9.766126855993950E-01, -9.886945112336747E-01, -4.399494679629540E-02,  1.045228132902759E-02,  1.105391776978361E-02, -1.493414823453869E-05,  8.030306794046685E-03,  1.390404520116669E+00, -5.181659364239607E-04,
2596457.500000000, A.D. 2396-Oct-04 00:00:00.0000,  1.236550393263503E+00, -6.135829079497118E-01, -4.225455323256583E-02,  6.719342282008945E-03,  1.375341009598720E-02,  1.304792933617078E-04,  7.976336476294248E-03,  1.381059849274112E+00, -9.816038309191119E-05,
2596487.500000000, A.D. 2396-Nov-03 00:00:00.0000,  1.372784349603689E+00, -1.771393631956699E-01, -3.628811702623178E-02,  2.292201065507924E-03,  1.509613211229389E-02,  2.637609847801327E-04,  7.997022299867242E-03,  1.384641488598222E+00,  3.343877343808455E-04,
2596517.500000000, A.D. 2396-Dec-03 00:00:00.0000,  1.372770209421099E+00,  2.770510525949855E-01, -2.671669328925278E-02, -2.266848184956326E-03,  1.493464527103949E-02,  3.684722842705279E-04,  8.089786309248838E-03,  1.400703078927989E+00,  7.253165850531166E-04,
2596547.500000000, A.D. 2397-Jan-02 00:00:00.0000,  1.240959343186912E+00,  7.049835526364029E-01, -1.457311724791615E-02, -6.412392038334372E-03,  1.338423081057580E-02,  4.341106249125660E-04,  8.243415496573399E-03,  1.427303148135342E+00,  1.031188385511737E-03,
2596577.500000000, A.D. 2397-Feb-01 00:00:00.0000,  9.962631569706085E-01,  1.069283604667264E+00, -1.093414499025124E-03, -9.740901187999508E-03,  1.075428181353652E-02,  4.576246014142024E-04,  8.440775110211771E-03,  1.461474905943488E+00,  1.227784256314746E-03,
2596607.500000000, A.D. 2397-Mar-03 00:00:00.0000,  6.668730108259316E-01,  1.343352861343921E+00,  1.249335813060195E-02, -1.203829272854462E-02,  7.434847155805743E-03,  4.421570101861551E-04,  8.662262114323971E-03,  1.499824191912613E+00,  1.310243373718426E-03,
2596637.500000000, A.D. 2397-Apr-02 00:00:00.0000,  2.847930398672702E-01,  1.512248056590668E+00,  2.511335558041808E-02, -1.325661657362700E-02,  3.800393631698447E-03,  3.944615167969770E-04,  8.888730877577368E-03,  1.539036042738311E+00,  1.287592979476777E-03,
2596667.500000000, A.D. 2397-May-02 00:00:00.0000, -1.183440561727082E-01,  1.571332173912776E+00,  3.591868237515673E-02, -1.345878346341011E-02,  1.588287469229500E-04,  3.225164916227334E-04,  9.103324044383212E-03,  1.576191697779311E+00,  1.176204719532361E-03,
2596697.500000000, A.D. 2397-Jun-01 00:00:00.0000, -5.137692353531254E-01,  1.524028515856048E+00,  4.429917591083807E-02, -1.276507582969397E-02, -3.259943808360530E-03,  2.340203156433103E-04,  9.292276227612851E-03,  1.608907754137602E+00,  9.947262838595524E-04,
2596727.500000000, A.D. 2397-Jul-01 00:00:00.0000, -8.766945045477820E-01,  1.379603343466632E+00,  4.986226914085158E-02, -1.131590425207576E-02, -6.293584262595361E-03,  1.357249376977398E-04,  9.445020855211721E-03,  1.635354666576173E+00,  7.611246413579076E-04,
2596757.500000000, A.D. 2397-Jul-31 00:00:00.0000, -1.186574246653131E+00,  1.151402771480612E+00,  5.240197988726283E-02, -9.251518475158114E-03, -8.829349113000920E-03,  3.333144284632816E-05,  9.553958633992549E-03,  1.654216658267527E+00,  4.916061965114407E-04,
2596787.500000000, A.D. 2397-Aug-30 00:00:00.0000, -1.426961530979261E+00,  8.556317299804206E-01,  5.186978246112920E-02, -6.704459042685529E-03, -1.078679751447557E-02, -6.831918674001315E-05,  9.614139775320904E-03,  1.664636699876741E+00,  2.006054656548567E-04,
2596817.500000000, A.D. 2397-Sep-29 00:00:00.0000, -1.585267993523927E+00,  5.105960028958724E-01,  4.835299728848454E-02, -3.799934179511985E-03, -1.210445623521962E-02, -1.649617818544413E-04,  9.622992662255934E-03,  1.666169529733214E+00, -9.875905921185888E-05,
2596847.500000000, A.D. 2397-Oct-29 00:00:00.0000, -1.652610192748394E+00,  1.362777891311881E-01,  4.206209535907066E-02, -6.608506836479514E-04, -1.273094303487249E-02, -2.526013519975420E-04,  9.580157992959845E-03,  1.658752936652220E+00, -3.939351800880793E-04,
2596877.500000000, A.D. 2397-Nov-28 00:00:00.0000, -1.623853815172631E+00, -2.458919131090198E-01,  3.332695769607794E-02,  2.584256926786827E-03, -1.262076997743918E-02, -3.272297628211703E-04,  9.487464077480344E-03,  1.642703482705385E+00, -6.720724582210738E-04,
2596907.500000000, A.D. 2397-Dec-28 00:00:00.0000, -1.497922588458028E+00, -6.132112174863785E-01,  2.260051442160555E-02,  5.791743597455486E-03, -1.173530635974903E-02, -3.846268436189941E-04,  9.349047690460197E-03,  1.618737428218686E+00, -9.192688074878483E-04,
2596937.500000000, A.D. 2398-Jan-27 00:00:00.0000, -1.278400320673901E+00, -9.419995341341855E-01,  1.046678688753986E-02,  8.792990733930013E-03, -1.004966832444125E-02, -4.202716448247306E-04,  9.171588677197537E-03,  1.588011352552590E+00, -1.120003446445378E-03,
2596967.500000000, A.D. 2398-Feb-26 00:00:00.0000, -9.744106973896520E-01, -1.208207220422928E+00, -2.351062633047421E-03,  1.138627054508425E-02, -7.567325963101006E-03, -4.294519183244936E-04,  8.964613661990754E-03,  1.552174739571866E+00, -1.256943716768995E-03,
2596997.500000000, A.D. 2398-Mar-28 00:00:00.0000, -6.016609742171934E-01, -1.388600926420451E+00, -1.499095378363470E-02,  1.333501450570319E-02, -4.343960907870292E-03, -4.077335138526669E-04,  8.740771773985292E-03,  1.513417718096052E+00, -1.311612345819444E-03,
2597027.500000000, A.D. 2398-Apr-27 00:00:00.0000, -1.833491441936724E-01, -1.462792745645811E+00, -2.647323845181796E-02,  1.438014869105642E-02, -5.193274911533289E-04, -3.519216740212427E-04,  8.515864896948354E-03,  1.474476299485580E+00, -1.266621215592460E-03,
2597057.500000000, A.D. 2398-May-27 00:00:00.0000,  2.496314256390617E-01, -1.416265472858573E+00, -3.575954276418518E-02,  1.427619274275648E-02,  3.650264705330234E-03, -2.615955814774897E-04,  8.308324481895479E-03,  1.438541790556191E+00, -1.109875982734634E-03,
2597087.500000000, A.D. 2398-Jun-26 00:00:00.0000,  6.600170997159086E-01, -1.244164416122530E+00, -4.186404434477747E-02,  1.285724723885002E-02,  7.777497774865137E-03, -1.409839646022303E-04,  8.137785801512644E-03,  1.409013933384555E+00, -8.407161618705443E-04,
